{
  "type": "FeatureCollection",
  "features": [
    {
      "type": "Feature",
      "properties": {
        "norad_id": 30290,
        "name": "FENGYUN 1C DEB",
        "group": "fengyun-1c-debris",
        "lat": -75.14554234113827,
        "lon": 135.47705610180373,
        "alt_km": 665.4188860778359,
        "timestamp": "2025-12-05T19:30:25.840851+00:00",
        "meta_object_name": "FENGYUN 1C DEB",
        "meta_object_id": "1999-025ZB",
        "meta_epoch": "2025-12-05T05:21:29.606976",
        "meta_mean_motion": 14.74139815,
        "meta_eccentricity": 0.00164767,
        "meta_inclination": 102.6239,
        "meta_ra_of_asc_node": 76.8928,
        "meta_arg_of_pericenter": 76.0623,
        "meta_mean_anomaly": 314.8007,
        "meta_ephemeris_type": 0,
        "meta_classification_type": "U",
        "meta_norad_cat_id": 30290,
        "meta_element_set_no": 999,
        "meta_rev_at_epoch": 97768,
        "meta_bstar": 0.0089265069,
        "meta_mean_motion_dot": 0.00059451,
        "meta_mean_motion_ddot": 0,
        "tle_line1": "1 30290U 99025ZB  25339.22325934  .00059451  00000+0  89265-2 0  9996",
        "tle_line2": "2 30290 102.6239  76.8928 0016476  76.0623 314.8007 14.74139815977680"
      },
      "geometry": {
        "type": "Point",
        "coordinates": [
          135.47705610180373,
          -75.14554234113827
        ]
      }
    },
    {
      "type": "Feature",
      "properties": {
        "norad_id": 30291,
        "name": "FENGYUN 1C DEB",
        "group": "fengyun-1c-debris",
        "lat": 42.027984366281146,
        "lon": 56.10024437680836,
        "alt_km": 714.8609207796962,
        "timestamp": "2025-12-05T19:30:25.840861+00:00",
        "meta_object_name": "FENGYUN 1C DEB",
        "meta_object_id": "1999-025ZC",
        "meta_epoch": "2025-12-05T04:42:48.053664",
        "meta_mean_motion": 14.5492707,
        "meta_eccentricity": 0.01124726,
        "meta_inclination": 97.2332,
        "meta_ra_of_asc_node": 228.9936,
        "meta_arg_of_pericenter": 42.4828,
        "meta_mean_anomaly": 107.0385,
        "meta_ephemeris_type": 0,
        "meta_classification_type": "U",
        "meta_norad_cat_id": 30291,
        "meta_element_set_no": 999,
        "meta_rev_at_epoch": 97598,
        "meta_bstar": 0.0054670736,
        "meta_mean_motion_dot": 0.0002563,
        "meta_mean_motion_ddot": 0,
        "tle_line1": "1 30291U 99025ZC  25339.19638951  .00025630  00000+0  54671-2 0  9994",
        "tle_line2": "2 30291  97.2332 228.9936 0112472  42.4828 107.0385 14.54927070975988"
      },
      "geometry": {
        "type": "Point",
        "coordinates": [
          56.10024437680836,
          42.027984366281146
        ]
      }
    },
    {
      "type": "Feature",
      "properties": {
        "norad_id": 30293,
        "name": "FENGYUN 1C DEB",
        "group": "fengyun-1c-debris",
        "lat": -5.63566702409754,
        "lon": -10.849796000972972,
        "alt_km": 697.9670499862923,
        "timestamp": "2025-12-05T19:30:25.840872+00:00",
        "meta_object_name": "FENGYUN 1C DEB",
        "meta_object_id": "1999-025ZE",
        "meta_epoch": "2025-12-04T06:59:26.636064",
        "meta_mean_motion": 14.48861202,
        "meta_eccentricity": 0.007657,
        "meta_inclination": 99.2545,
        "meta_ra_of_asc_node": 168.4054,
        "meta_arg_of_pericenter": 139.7502,
        "meta_mean_anomaly": 33.5327,
        "meta_ephemeris_type": 0,
        "meta_classification_type": "U",
        "meta_norad_cat_id": 30293,
        "meta_element_set_no": 999,
        "meta_rev_at_epoch": 98854,
        "meta_bstar": 0.0019309,
        "meta_mean_motion_dot": 7.53e-05,
        "meta_mean_motion_ddot": 0,
        "tle_line1": "1 30293U 99025ZE  25338.29128051  .00007530  00000+0  19309-2 0  9999",
        "tle_line2": "2 30293  99.2545 168.4054 0076570 139.7502  33.5327 14.48861202988546"
      },
      "geometry": {
        "type": "Point",
        "coordinates": [
          -10.849796000972972,
          -5.63566702409754
        ]
      }
    },
    {
      "type": "Feature",
      "properties": {
        "norad_id": 30294,
        "name": "FENGYUN 1C DEB",
        "group": "fengyun-1c-debris",
        "lat": 79.19578084771823,
        "lon": -161.36235462684482,
        "alt_km": 850.2881786890048,
        "timestamp": "2025-12-05T19:30:25.840882+00:00",
        "meta_object_name": "FENGYUN 1C DEB",
        "meta_object_id": "1999-025ZF",
        "meta_epoch": "2025-12-04T23:14:58.594272",
        "meta_mean_motion": 14.34911357,
        "meta_eccentricity": 0.0198034,
        "meta_inclination": 98.3553,
        "meta_ra_of_asc_node": 327.4566,
        "meta_arg_of_pericenter": 332.9358,
        "meta_mean_anomaly": 84.416,
        "meta_ephemeris_type": 0,
        "meta_classification_type": "U",
        "meta_norad_cat_id": 30294,
        "meta_element_set_no": 999,
        "meta_rev_at_epoch": 98425,
        "meta_bstar": 0.00090254,
        "meta_mean_motion_dot": 3.154e-05,
        "meta_mean_motion_ddot": 0,
        "tle_line1": "1 30294U 99025ZF  25338.96873373  .00003154  00000+0  90254-3 0  9995",
        "tle_line2": "2 30294  98.3553 327.4566 0198034 332.9358  84.4160 14.34911357984253"
      },
      "geometry": {
        "type": "Point",
        "coordinates": [
          -161.36235462684482,
          79.19578084771823
        ]
      }
    },
    {
      "type": "Feature",
      "properties": {
        "norad_id": 30295,
        "name": "FENGYUN 1C DEB",
        "group": "fengyun-1c-debris",
        "lat": -73.68787415361234,
        "lon": 33.239938742919286,
        "alt_km": 883.5698150306134,
        "timestamp": "2025-12-05T19:30:25.840893+00:00",
        "meta_object_name": "FENGYUN 1C DEB",
        "meta_object_id": "1999-025ZG",
        "meta_epoch": "2025-12-03T07:48:29.820096",
        "meta_mean_motion": 14.25031927,
        "meta_eccentricity": 0.0094503,
        "meta_inclination": 98.5091,
        "meta_ra_of_asc_node": 0.0599,
        "meta_arg_of_pericenter": 109.6743,
        "meta_mean_anomaly": 20.6828,
        "meta_ephemeris_type": 0,
        "meta_classification_type": "U",
        "meta_norad_cat_id": 30295,
        "meta_element_set_no": 999,
        "meta_rev_at_epoch": 98042,
        "meta_bstar": 0.00023455,
        "meta_mean_motion_dot": 5.34e-06,
        "meta_mean_motion_ddot": 0,
        "tle_line1": "1 30295U 99025ZG  25337.32534514  .00000534  00000+0  23455-3 0  9994",
        "tle_line2": "2 30295  98.5091   0.0599 0094503 109.6743  20.6828 14.25031927980420"
      },
      "geometry": {
        "type": "Point",
        "coordinates": [
          33.239938742919286,
          -73.68787415361234
        ]
      }
    },
    {
      "type": "Feature",
      "properties": {
        "norad_id": 30297,
        "name": "FENGYUN 1C DEB",
        "group": "fengyun-1c-debris",
        "lat": -52.00994651251958,
        "lon": -57.186167941586746,
        "alt_km": 1096.5113566267582,
        "timestamp": "2025-12-05T19:30:25.840903+00:00",
        "meta_object_name": "FENGYUN 1C DEB",
        "meta_object_id": "1999-025ZJ",
        "meta_epoch": "2025-12-04T20:25:06.189312",
        "meta_mean_motion": 14.21680722,
        "meta_eccentricity": 0.03795292,
        "meta_inclination": 98.8112,
        "meta_ra_of_asc_node": 290.3957,
        "meta_arg_of_pericenter": 138.399,
        "meta_mean_anomaly": 287.1291,
        "meta_ephemeris_type": 0,
        "meta_classification_type": "U",
        "meta_norad_cat_id": 30297,
        "meta_element_set_no": 999,
        "meta_rev_at_epoch": 95040,
        "meta_bstar": 0.0025508768,
        "meta_mean_motion_dot": 0.00011701,
        "meta_mean_motion_ddot": 0,
        "tle_line1": "1 30297U 99025ZJ  25338.85076608  .00011701  00000+0  25509-2 0  9999",
        "tle_line2": "2 30297  98.8112 290.3957 0379529 138.3990 287.1291 14.21680722950406"
      },
      "geometry": {
        "type": "Point",
        "coordinates": [
          -57.186167941586746,
          -52.00994651251958
        ]
      }
    },
    {
      "type": "Feature",
      "properties": {
        "norad_id": 30298,
        "name": "FENGYUN 1C DEB",
        "group": "fengyun-1c-debris",
        "lat": 54.40259545118593,
        "lon": 57.84016368538688,
        "alt_km": 821.5688654252881,
        "timestamp": "2025-12-05T19:30:25.840913+00:00",
        "meta_object_name": "FENGYUN 1C DEB",
        "meta_object_id": "1999-025ZK",
        "meta_epoch": "2025-12-05T04:18:49.900608",
        "meta_mean_motion": 14.19840017,
        "meta_eccentricity": 0.00491768,
        "meta_inclination": 99.0025,
        "meta_ra_of_asc_node": 69.991,
        "meta_arg_of_pericenter": 149.0301,
        "meta_mean_anomaly": 272.9919,
        "meta_ephemeris_type": 0,
        "meta_classification_type": "U",
        "meta_norad_cat_id": 30298,
        "meta_element_set_no": 999,
        "meta_rev_at_epoch": 96727,
        "meta_bstar": 0.0039619638,
        "meta_mean_motion_dot": 8.467e-05,
        "meta_mean_motion_ddot": 0,
        "tle_line1": "1 30298U 99025ZK  25339.17974422  .00008467  00000+0  39620-2 0  9991",
        "tle_line2": "2 30298  99.0025  69.9910 0049176 149.0301 272.9919 14.19840017967273"
      },
      "geometry": {
        "type": "Point",
        "coordinates": [
          57.84016368538688,
          54.40259545118593
        ]
      }
    }
  ]
}